FENGYUN 1C DEB          
1 30525U 99025AJP 17346.41254221  .00000585  00000-0  70177-3 0  9995
2 30525  98.5894 206.3049 0310698 320.0749  37.7906 13.51918953536265
